{"type": "FeatureCollection", "features": [ {"type": "Feature", "properties": {"norad_id": 37689, "name": "FENGYUN 1C DEB", "group": "fengyun-1c-debris", "lat": 55.17258776559663, "lon": 17.512933585075924, "alt_km": 739.2952802131849, "timestamp": "2025-12-15T11:38:37.442858+00:00", "meta": {"OBJECT_NAME": "FENGYUN 1C DEB", "OBJECT_ID": "1999-025ELE", "EPOCH": "2025-12-12T02:09:35.469504", "MEAN_MOTION": 14.48626906, "ECCENTRICITY": 0.00208176, "INCLINATION": 98.92, "RA_OF_ASC_NODE": 26.9753, "ARG_OF_PERICENTER": 242.0212, "MEAN_ANOMALY": 117.8873, "EPHEMERIS_TYPE": 0, "CLASSIFICATION_TYPE": "U", "NORAD_CAT_ID": 37689, "ELEMENT_SET_NO": 999, "REV_AT_EPOCH": 57803, "BSTAR": 0.0037418292, "MEAN_MOTION_DOT": 0.00014096, "MEAN_MOTION_DDOT": 0}, "tle": {"line1": "1 37689U 99025ELE 25346.08999386  .00014096  00000+0  37418-2 0  9994", "line2": "2 37689  98.9200  26.9753 0020817 242.0212 117.8873 14.48626906578030"}}, "geometry": {"type": "Point", "coordinates": [17.512933585075924, 55.17258776559663]}}, {"type": "Feature", "properties": {"norad_id": 37691, "name": "FENGYUN 1C DEB", "group": "fengyun-1c-debris", "lat": -59.62420713227376, "lon": 58.638013578813485, "alt_km": 733.5315010189997, "timestamp": "2025-12-15T11:38:37.442868+00:00", "meta": {"OBJECT_NAME": "FENGYUN 1C DEB", "OBJECT_ID": "1999-025ELG", "EPOCH": "2025-12-14T11:30:11.305728", "MEAN_MOTION": 14.57709944, "ECCENTRICITY": 0.02803779, "INCLINATION": 98.3722, "RA_OF_ASC_NODE": 252.1766, "ARG_OF_PERICENTER": 144.6494, "MEAN_ANOMALY": 217.3656, "EPHEMERIS_TYPE": 0, "CLASSIFICATION_TYPE": "U", "NORAD_CAT_ID": 37691, "ELEMENT_SET_NO": 999, "REV_AT_EPOCH": 85659, "BSTAR": 0.0018167166, "MEAN_MOTION_DOT": 0.00014274, "MEAN_MOTION_DDOT": 0}, "tle": {"line1": "1 37691U 99025ELG 25348.47929752  .00014274  00000+0  18167-2 0  9990", "line2": "2 37691  98.3722 252.1766 0280377 144.6494 217.3656 14.57709944856590"}}, "geometry": {"type": "Point", "coordinates": [58.638013578813485, -59.62420713227376]}}, {"type": "Feature", "properties": {"norad_id": 37693, "name": "FENGYUN 1C DEB", "group": "fengyun-1c-debris", "lat": -0.6733321391133739, "lon": 169.0730353385752, "alt_km": 888.1945055940942, "timestamp": "2025-12-15T11:38:37.442878+00:00", "meta": {"OBJECT_NAME": "FENGYUN 1C DEB", "OBJECT_ID": "1999-025ELJ", "EPOCH": "2025-12-14T23:00:10.213056", "MEAN_MOTION": 14.0848987, "ECCENTRICITY": 0.00726342, "INCLINATION": 98.689, "RA_OF_ASC_NODE": 348.6686, "ARG_OF_PERICENTER": 68.5424, "MEAN_ANOMALY": 322.0591, "EPHEMERIS_TYPE": 0, "CLASSIFICATION_TYPE": "U", "NORAD_CAT_ID": 37693, "ELEMENT_SET_NO": 999, "REV_AT_EPOCH": 62180, "BSTAR": 0.00065682635, "MEAN_MOTION_DOT": 1.113e-05, "MEAN_MOTION_DDOT": 0}, "tle": {"line1": "1 37693U 99025ELJ 25348.95845154  .00001113  00000+0  65683-3 0  9992", "line2": "2 37693  98.6890 348.6686 0072634  68.5424 322.0591 14.08489870621800"}}, "geometry": {"type": "Point", "coordinates": [169.0730353385752, -0.6733321391133739]}}, {"type": "Feature", "properties": {"norad_id": 37694, "name": "FENGYUN 1C DEB", "group": "fengyun-1c-debris", "lat": -11.144177222833369, "lon": 58.51027194951141, "alt_km": 851.7077450210909, "timestamp": "2025-12-15T11:38:37.442888+00:00", "meta": {"OBJECT_NAME": "FENGYUN 1C DEB", "OBJECT_ID": "1999-025ELK", "EPOCH": "2025-12-14T10:20:27.757248", "MEAN_MOTION": 14.16668534, "ECCENTRICITY": 0.01472645, "INCLINATION": 98.1988, "RA_OF_ASC_NODE": 55.9107, "ARG_OF_PERICENTER": 88.6122, "MEAN_ANOMALY": 288.1431, "EPHEMERIS_TYPE": 0, "CLASSIFICATION_TYPE": "U", "NORAD_CAT_ID": 37694, "ELEMENT_SET_NO": 999, "REV_AT_EPOCH": 51728, "BSTAR": 0.0018272074, "MEAN_MOTION_DOT": 4.021e-05, "MEAN_MOTION_DDOT": 0}, "tle": {"line1": "1 37694U 99025ELK 25348.43087682  .00004021  00000+0  18272-2 0  9992", "line2": "2 37694  98.1988  55.9107 0147264  88.6122 288.1431 14.16668534517286"}}, "geometry": {"type": "Point", "coordinates": [58.51027194951141, -11.144177222833369]}}, {"type": "Feature", "properties": {"norad_id": 37695, "name": "FENGYUN 1C DEB", "group": "fengyun-1c-debris", "lat": 78.20822840587034, "lon": -103.84861025102059, "alt_km": 1319.3994318752648, "timestamp": "2025-12-15T11:38:37.442898+00:00", "meta": {"OBJECT_NAME": "FENGYUN 1C DEB", "OBJECT_ID": "1999-025ELL", "EPOCH": "2025-12-14T21:58:38.080128", "MEAN_MOTION": 13.64992278, "ECCENTRICITY": 0.04655182, "INCLINATION": 98.211, "RA_OF_ASC_NODE": 31.9079, "ARG_OF_PERICENTER": 255.0095, "MEAN_ANOMALY": 289.1133, "EPHEMERIS_TYPE": 0, "CLASSIFICATION_TYPE": "U", "NORAD_CAT_ID": 37695, "ELEMENT_SET_NO": 999, "REV_AT_EPOCH": 89281, "BSTAR": 0.00096439728, "MEAN_MOTION_DOT": 1.602e-05, "MEAN_MOTION_DDOT": 0}, "tle": {"line1": "1 37695U 99025ELL 25348.91571852  .00001602  00000+0  96440-3 0  9999", "line2": "2 37695  98.2110  31.9079 0465518 255.0095 289.1133 13.64992278892813"}}, "geometry": {"type": "Point", "coordinates": [-103.84861025102059, 78.20822840587034]}}, {"type": "Feature", "properties": {"norad_id": 37704, "name": "FENGYUN 1C DEB", "group": "fengyun-1c-debris", "lat": 57.85425475873607, "lon": 15.728729522218282, "alt_km": 876.8850008956242, "timestamp": "2025-12-15T11:38:37.442908+00:00", "meta": {"OBJECT_NAME": "FENGYUN 1C DEB", "OBJECT_ID": "1999-025ELV", "EPOCH": "2025-12-10T18:58:47.253216", "MEAN_MOTION": 13.70500661, "ECCENTRICITY": 0.02401356, "INCLINATION": 98.3199, "RA_OF_ASC_NODE": 178.1952, "ARG_OF_PERICENTER": 184.1814, "MEAN_ANOMALY": 190.5574, "EPHEMERIS_TYPE": 0, "CLASSIFICATION_TYPE": "U", "NORAD_CAT_ID": 37704, "ELEMENT_SET_NO": 999, "REV_AT_EPOCH": 62338, "BSTAR": 0.0019314833, "MEAN_MOTION_DOT": 2.062e-05, "MEAN_MOTION_DDOT": 0}, "tle": {"line1": "1 37704U 99025ELV 25344.79082469  .00002062  00000+0  19315-2 0  9999", "line2": "2 37704  98.3199 178.1952 0240135 184.1814 190.5574 13.70500661623389"}}, "geometry": {"type": "Point", "coordinates": [15.728729522218282, 57.85425475873607]}}, {"type": "Feature", "properties": {"norad_id": 37707, "name": "FENGYUN 1C DEB", "group": "fengyun-1c-debris", "lat": -6.401359302903546, "lon": -4.748845204220004, "alt_km": 615.3126371827348, "timestamp": "2025-12-15T11:38:37.442918+00:00", "meta": {"OBJECT_NAME": "FENGYUN 1C DEB", "OBJECT_ID": "1999-025ELY", "EPOCH": "2025-12-10T18:43:33.805632", "MEAN_MOTION": 14.56419788, "ECCENTRICITY": 0.01436989, "INCLINATION": 100.2215, "RA_OF_ASC_NODE": 348.3329, "ARG_OF_PERICENTER": 31.5927, "MEAN_ANOMALY": 147.6034, "EPHEMERIS_TYPE": 0, "CLASSIFICATION_TYPE": "U", "NORAD_CAT_ID": 37707, "ELEMENT_SET_NO": 999, "REV_AT_EPOCH": 85537, "BSTAR": 0.0011022748, "MEAN_MOTION_DOT": 5.562e-05, "MEAN_MOTION_DDOT": 0}, "tle": {"line1": "1 37707U 99025ELY 25344.78025238  .00005562  00000+0  11023-2 0  9998", "line2": "2 37707 100.2215 348.3329 0143698  31.5927 147.6034 14.56419788855373"}}, "geometry": {"type": "Point", "coordinates": [-4.748845204220004, -6.401359302903546]}}, {"type": "Feature", "properties": {"norad_id": 37712, "name": "FENGYUN 1C DEB", "group": "fengyun-1c-debris", "lat": 5.544410522650428, "lon": 127.70182381012056, "alt_km": 719.3468073497588, "timestamp": "2025-12-15T11:38:37.442928+00:00", "meta": {"OBJECT_NAME": "FENGYUN 1C DEB", "OBJECT_ID": "1999-025EMD", "EPOCH": "2025-12-14T15:36:31.768416", "MEAN_MOTION": 14.36434035, "ECCENTRICITY": 0.0079125, "INCLINATION": 98.8182, "RA_OF_ASC_NODE": 127.7109, "ARG_OF_PERICENTER": 347.949, "MEAN_ANOMALY": 23.1022, "EPHEMERIS_TYPE": 0, "CLASSIFICATION_TYPE": "U", "NORAD_CAT_ID": 37712, "ELEMENT_SET_NO": 999, "REV_AT_EPOCH": 63988, "BSTAR": 0.00047842497, "MEAN_MOTION_DOT": 1.406e-05, "MEAN_MOTION_DDOT": 0}, "tle": {"line1": "1 37712U 99025EMD 25348.65036769  .00001406  00000+0  47842-3 0  9997", "line2": "2 37712  98.8182 127.7109 0079125 347.9490  23.1022 14.36434035639882"}}, "geometry": {"type": "Point", "coordinates": [127.70182381012056, 5.544410522650428]}}, {"type": "Feature", "properties": {"norad_id": 37714, "name": "FENGYUN 1C DEB", "group": "fengyun-1c-debris", "lat": -40.90145026888969, "lon": -86.5422810486484, "alt_km": 819.0443345076737, "timestamp": "2025-12-15T11:38:37.442938+00:00", "meta": {"OBJECT_NAME": "FENGYUN 1C DEB", "OBJECT_ID": "1999-025EMF", "EPOCH": "2025-12-09T13:46:38.631072", "MEAN_MOTION": 14.32176518, "ECCENTRICITY": 0.0048599, "INCLINATION": 98.8929, "RA_OF_ASC_NODE": 95.1946, "ARG_OF_PERICENTER": 93.8012, "MEAN_ANOMALY": 266.8729, "EPHEMERIS_TYPE": 0, "CLASSIFICATION_TYPE": "U", "NORAD_CAT_ID": 37714, "ELEMENT_SET_NO": 999, "REV_AT_EPOCH": 57464, "BSTAR": 0.0030577, "MEAN_MOTION_DOT": 8.305e-05, "MEAN_MOTION_DDOT": 0}, "tle": {"line1": "1 37714U 99025EMF 25343.57405823  .00008305  00000+0  30577-2 0  9997", "line2": "2 37714  98.8929  95.1946 0048599  93.8012 266.8729 14.32176518574645"}}, "geometry": {"type": "Point", "coordinates": [-86.5422810486484, -40.90145026888969]}}, {"type": "Feature", "properties": {"norad_id": 37715, "name": "FENGYUN 1C DEB", "group": "fengyun-1c-debris", "lat": 19.306589657173745, "lon": -5.995582478469855, "alt_km": 901.4231333139614, "timestamp": "2025-12-15T11:38:37.442948+00:00", "meta": {"OBJECT_NAME": "FENGYUN 1C DEB", "OBJECT_ID": "1999-025EMG", "EPOCH": "2025-12-14T19:11:00.726144", "MEAN_MOTION": 13.95417457, "ECCENTRICITY": 0.01145392, "INCLINATION": 98.9564, "RA_OF_ASC_NODE": 356.5051, "ARG_OF_PERICENTER": 106.4561, "MEAN_ANOMALY": 71.0654, "EPHEMERIS_TYPE": 0, "CLASSIFICATION_TYPE": "U", "NORAD_CAT_ID": 37715, "ELEMENT_SET_NO": 999, "REV_AT_EPOCH": 57832, "BSTAR": 0.0005569048, "MEAN_MOTION_DOT": 7.56e-06, "MEAN_MOTION_DDOT": 0}, "tle": {"line1": "1 37715U 99025EMG 25348.79931396  .00000756  00000+0  55690-3 0  9992", "line2": "2 37715  98.9564 356.5051 0114539 106.4561  71.0654 13.95417457578321"}}, "geometry": {"type": "Point", "coordinates": [-5.995582478469855, 19.306589657173745]}}]}